COSMOS 1892             
1 18421U 87088A   20207.13073123  .00000116  00000-0  41698-5 0  9999
2 18421  82.4984 236.2512 0013486 298.3019  61.6853 15.17178526790264
SL-14 R/B               
1 18749U 88001B   20207.08488148  .00000066  00000-0  51677-5 0  9991
2 18749  82.5161 322.3738 0019017 169.6152   3.2568 14.83222666737449
COSMOS 1933             
1 18958U 88020A   20207.19080659 -.00000209  00000-0 -17334-4 0  9993
2 18958  82.5290  89.1597 0012365  31.0894 329.1061 15.03740433761927
SL-3 R/B                
1 19046U 88032B   20207.14982427  .00000458  00000-0  38135-4 0  9990
2 19046  97.3989 226.5444 0038021  77.6224 282.9254 15.02716426742623
SL-16 R/B               
1 19120U 88039B   20207.10583338 -.00000085  00000-0 -17306-4 0  9999
2 19120  71.0141  88.9643 0024058 251.2064 108.6451 14.19208280666992
COSMOS 1953             
1 19210U 88050A   20207.18685229 -.00000069  00000-0 -67722-5 0  9992
2 19210  82.5154  13.1984 0013063 359.1353   0.9849 15.05990806727344
SL-8 R/B                
1 19257U 88053B   20207.49775183  .00000023  00000-0  16528-4 0  9994
2 19257  74.0497 291.0322 0021555 261.6551 109.5323 14.37473326681750
COSMOS 1975             
1 19573U 88093A   20207.05641135 -.00000162  00000-0 -13528-4 0  9993
2 19573  82.5212 327.7540 0015226  41.1708 319.0664 15.04899980709167
SL-14 R/B               
1 19574U 88093B   20207.00039203  .00000053  00000-0  34882-5 0  9990
2 19574  82.5330 164.9394 0021100 342.3916  83.9935 14.83332995696439
SL-16 R/B               
1 19650U 88102B   20207.14261328 -.00000168  00000-0 -60823-4 0  9998
2 19650  71.0004 150.6561 0016624 259.1208 100.8044 14.15792717636214
INTERCOSMOS 24          
1 20261U 89080A   20207.17243329  .00000054  00000-0  11456-4 0  9998
2 20261  82.6060 355.8703 1202797   0.8835 359.4017 12.56122988408733
SL-14 R/B               
1 20262U 89080C   20207.38853312  .00000048  00000-0  93180-5 0  9999
2 20262  82.5920  49.6224 1236836 190.5982 166.6678 12.48942652403291
DELTA 2 R/B(1)          
1 20303U 89085B   20207.17886191  .00001268  00000-0  42569-4 0  9997
2 20303  35.6268 133.4550 0094387 152.2557 208.3247 15.27453396674377
DELTA 1 R/B             
1 20323U 89089B   20207.14805884  .00000011  00000-0  11635-4 0  9995
2 20323  97.0952 346.9484 0073224 112.0308 248.8688 14.48352929598323
ARIANE 40 R/B           
1 20443U 90005H   20207.15403398  .00000002  00000-0  15429-4 0  9998
2 20443  98.5734 268.9122 0009578 226.0177 134.0221 14.38093606597537
DELTA 2 R/B(1)          
1 20453U 90008B   20207.32463852  .00000347  00000-0  21677-4 0  9996
2 20453  35.6271  32.9874 0281521 261.0983  95.7764 14.85619675616835
COSMOS 2058             
1 20465U 90010A   20207.18900703  .00000082  00000-0  46259-5 0  9997
2 20465  82.4876 237.0311 0017035  75.6618 284.6495 14.98023325633973
SL-14 R/B               
1 20466U 90010B   20207.03224774  .00000050  00000-0  33935-5 0  9991
2 20466  82.5021  31.6049 0019704 210.4574 149.5497 14.81388592645356
SL-14 R/B               
1 20511U 90018B   20207.45694580  .00000057  00000-0  44165-5 0  9996
2 20511  82.5247 337.7541 0017351 358.5152  64.6576 14.80044305639837
HST                     
1 20580U 90037B   20207.06076711  .00000335  00000-0  93576-5 0  9999
2 20580  28.4702  70.9229 0002809 134.7713  19.6325 15.09408614461740
SL-16 R/B               
1 20625U 90046B   20207.47640847  .00000281  00000-0  17051-3 0  9993
2 20625  70.9995 288.3903 0014649 192.2931 167.7836 14.14656847558248
COSMOS 2084             
1 20663U 90055A   20206.98338684 -.00000077  00000-0  10411-4 0  9991
2 20663  62.7954  42.8808 0028743 279.1614  80.6228 14.92098004628960
SL-6 R/B(2)             
1 20666U 90055D   20207.09660651 -.00000109  00000-0  77824-5 0  9997
2 20666  62.7871 318.8415 0050011 349.5412  10.4637 14.92348250630916
SL-8 R/B                
1 20775U 90078B   20207.05360277  .00001448  00000-0  67239-4 0  9994
2 20775  82.9263 195.6257 0574955  78.2634 288.2448 14.34438190511137
SL-8 R/B                
1 21088U 91006B   20207.44595890 -.00000007  00000-0 -22790-4 0  9993
2 21088  82.9411 256.9670 0023101  28.2559 342.8594 13.77149169481713
OKEAN-3                 
1 21397U 91039A   20207.31618863  .00000199  00000-0  16544-4 0  9994
2 21397  82.5232 140.7122 0019078  46.4657 313.8144 14.92940664578975
COSMOS 2151             
1 21422U 91042A   20207.14597391  .00000105  00000-0  77197-5 0  9999
2 21422  82.4990 247.0558 0015756 105.7910 254.5048 14.92142116556503
SL-14 R/B               
1 21423U 91042B   20207.46440947  .00000058  00000-0  46087-5 0  9990
2 21423  82.4955 341.3751 0018760 131.5703 228.7122 14.79794817570321
ERS-1                   
1 21574U 91050A   20207.13650599  .00000024  00000-0  22776-4 0  9997
2 21574  98.5996 160.5129 0033009 172.9957 187.1697 14.37749938520535
ARIANE 40 R/B           
1 21610U 91050F   20207.18137128 -.00000010  00000-0  10389-4 0  9994
2 21610  98.4633 276.0375 0004136 133.1930 279.8067 14.40909050523134
INTERCOSMOS 25          
1 21819U 91086A   20207.43690400 -.00000129  00000-0 -29825-4 0  9996
2 21819  82.5922 103.5953 1516723 191.0328 165.3627 12.05148271248887
SL-8 R/B                
1 21876U 92008B   20207.14817285 -.00000012  00000-0 -28040-4 0  9993
2 21876  82.9274 354.4009 0036059 108.1138  64.7167 13.75657127427051
SL-8 R/B                
1 21938U 92020B   20207.22282178 -.00000053  00000-0 -70783-4 0  9998
2 21938  82.9283 238.5189 0027812 268.0257 161.0446 13.75283907418867
COSMOS 2219             
1 22219U 92076A   20207.14462866  .00000310  00000-0  18875-3 0  9994
2 22219  71.0615 348.9728 0016574  97.8566 262.4439 14.13646560428148
SL-16 R/B               
1 22220U 92076B   20207.21602323  .00000153  00000-0  10069-3 0  9990
2 22220  70.9989 192.0904 0013705 335.6330 106.5185 14.16459290431023
COSMOS 2221             
1 22236U 92080A   20207.35265951  .00000129  00000-0  11318-4 0  9991
2 22236  82.5068  67.8453 0016268 190.8027 169.2844 14.87934697495953
SL-16 R/B               
1 22285U 92093B   20206.83729456 -.00000305  00000-0 -13263-3 0  9994
2 22285  71.0225 354.0875 0005434 223.4571 136.6124 14.15044819422907
COSMOS 2228             
1 22286U 92094A   20207.43377047  .00000113  00000-0  95290-5 0  9995
2 22286  82.5194  24.0449 0020057 318.3136  41.6552 14.88152388491165
SL-16 R/B               
1 22566U 93016B   20207.14861483 -.00000267  00000-0 -11329-3 0  9992
2 22566  71.0050 206.6252 0011655 218.6548 141.3742 14.14965132411667
COSMOS 2242             
1 22626U 93024A   20207.07897459  .00000104  00000-0  86383-5 0  9994
2 22626  82.5204  52.5233 0017941 320.0120  39.9775 14.88008415474757
SL-16 R/B               
1 22803U 93059B   20207.17410045  .00000067  00000-0  57359-4 0  9990
2 22803  70.9903  19.7728 0015129  99.8784 260.4048 14.16822754388645
ARIANE 40 R/B           
1 22830U 93061H   20207.11847161 -.00000026  00000-0  74637-5 0  9995
2 22830  98.7622 256.6575 0010435 206.3194 153.7459 14.31452979400211
COSMOS 2278             
1 23087U 94023A   20207.17146920  .00000197  00000-0  12895-3 0  9994
2 23087  71.0529 148.8181 0010613 280.4813  79.5113 14.13802677354528
SL-16 R/B               
1 23088U 94023B   20207.01841758 -.00000255  00000-0 -10780-3 0  9997
2 23088  70.9984  62.2773 0004042 212.0493 148.0384 14.14686238355620
SL-16 R/B               
1 23343U 94074B   20207.11244253 -.00000008  00000-0  62430-5 0  9991
2 23343  97.9963 259.7747 0007668  38.9680  12.7286 14.76830103383971
SL-16 R/B               
1 23405U 94077B   20206.66416778  .00000111  00000-0  81867-4 0  9993
2 23405  70.9823 352.2235 0001919 350.2982   9.8104 14.15219492325624
ERS-2                   
1 23560U 95021A   20207.00315491  .00000399  00000-0  20641-4 0  9995
2 23560  98.5456   5.6491 0004427  57.5994 302.5667 15.23221766347835
ARIANE 40+ R/B          
1 23561U 95021B   20207.09585580 -.00000005  00000-0  13552-4 0  9991
2 23561  98.7213 246.8604 0007772 136.2225 276.8834 14.37976191323984
SL-16 R/B               
1 23705U 95058B   20207.19223460 -.00000224  00000-0 -90852-4 0  9990
2 23705  71.0208 169.7725 0012406 358.6325   1.4762 14.15138119277313
SL-16 R/B               
1 24298U 96051B   20207.18972263 -.00000117  00000-0 -37101-4 0  9992
2 24298  70.8410 190.9788 0017992 289.1889  70.7284 14.12500783231681
ORBVIEW 2 (SEASTAR)     
1 24883U 97037A   20207.16074370  .00000036  00000-0  29090-4 0  9993
2 24883  98.6144 320.2637 0002409  23.3690 336.7604 14.33562728214119
SL-16 R/B               
1 25400U 98043G   20207.40752677 -.00000017  00000-0  11172-4 0  9999
2 25400  98.6079 142.6384 0009102 219.8637 140.1875 14.25458089146652
SL-16 R/B               
1 25407U 98045B   20207.13871944 -.00000253  00000-0 -10441-3 0  9997
2 25407  71.0108 178.4107 0010177 276.7048  83.2916 14.15804054136411
ISS (ZARYA)             
1 25544U 98067A   20207.35112865 -.00002420  00000-0 -35142-4 0  9991
2 25544  51.6429 159.5724 0001322 150.7102 317.7247 15.49502010237938
SL-8 R/B                
1 25723U 99022C   20207.15075969  .00014401  00000-0  97470-4 0  9995
2 25723  48.4086 156.9970 0004628 173.9346 186.1664 15.75190019183924
CZ-4B R/B               
1 25732U 99025C   20207.09022917 -.00000045  00000-0 -15164-6 0  9999
2 25732  98.9420 236.0819 0038385 103.0463 316.5889 14.17679174 97290
OKEAN-O                 
1 25860U 99039A   20207.05065667  .00000011  00000-0  91681-5 0  9999
2 25860  98.2124 226.7013 0001906  96.3447 263.7980 14.76669643131067
SL-16 R/B               
1 25861U 99039B   20207.02647049 -.00000011  00000-0  60861-5 0  9994
2 25861  98.2076 209.9232 0016521  41.0516  21.5686 14.78584197133318
DELTA 2 R/B             
1 25876U 99041E   20207.15387063 -.00000126  00000-0  20872-4 0  9998
2 25876  51.7622 161.5130 0531679  94.0682 272.1169 14.04435443 73921
